IRIDIUM 159             
1 43578U 18061K   25196.50336173 -.00000015  00000+0 -12474-4 0  9993
2 43578  86.3987 197.3747 0002330  92.8627 267.2835 14.34217518365126
IRIDIUM 180             
1 43922U 19002A   25196.57262701  .00000053  00000+0  11872-4 0  9995
2 43922  86.3999 134.3289 0002333  82.8714 277.2747 14.34217920340744
IRIDIUM 176             
1 43923U 19002B   25196.58292203  .00000680  00000+0  10399-3 0  9995
2 43923  86.6124 134.3151 0002561  71.2621 288.8874 14.72253080349723
IRIDIUM 168             
1 43924U 19002C   25196.56628428  .00000084  00000+0  22818-4 0  9994
2 43924  86.4002 134.3994 0002282  84.0941 276.0515 14.34217838340720
IRIDIUM 173             
1 43925U 19002D   25196.55360658  .00000215  00000+0  69810-4 0  9991
2 43925  86.3997 134.3074 0002352  80.4990 279.6471 14.34216404340700
IRIDIUM 169             
1 43926U 19002E   25196.46318487  .00000237  00000+0  71016-4 0  9990
2 43926  86.4265 165.9298 0002400  51.3761 308.7652 14.38604786341811
IRIDIUM 172             
1 43927U 19002F   25196.54725686  .00000076  00000+0  19971-4 0  9996
2 43927  86.3998 134.3168 0002512  85.0570 275.0912 14.34218082340715
IRIDIUM 175             
1 43928U 19002G   25196.44197373  .00000626  00000+0  95330-4 0  9996
2 43928  86.1485  85.2787 0001418  83.1254 277.0124 14.72251489349691
